TEVEL2-6                
1 63215U 25052F   26068.64958975  .00021046  00000+0  70909-3 0  9996
2 63215  97.4016 325.0381 0004769  95.6604 264.5181 15.30760889 54861
STARLINK-35440          
1 66345U 25253AC  26068.43054704  .00032754  00000+0  11926-2 0  9991
2 66345  42.9994 214.0675 0002321 285.2507  74.8088 15.27631730 20209
